{
  "type": "FeatureCollection",
  "features": [
    {
      "type": "Feature",
      "properties": {
        "norad_id": 41860,
        "name": "GSAT0212 (GALILEO 16)",
        "group": "galileo",
        "lat": -54.783032843100365,
        "lon": 28.289112267557147,
        "alt_km": 23229.294277167777,
        "timestamp": "2025-12-21T07:34:34.781034+00:00",
        "meta_object_name": "GSAT0212 (GALILEO 16)",
        "meta_object_id": "2016-069B",
        "meta_epoch": "2025-12-20T06:39:51.383520",
        "meta_mean_motion": 1.70474695,
        "meta_eccentricity": 0.00020516,
        "meta_inclination": 55.384,
        "meta_ra_of_asc_node": 106.037,
        "meta_arg_of_pericenter": 19.5569,
        "meta_mean_anomaly": 340.4166,
        "meta_ephemeris_type": 0,
        "meta_classification_type": "U",
        "meta_norad_cat_id": 41860,
        "meta_element_set_no": 999,
        "meta_rev_at_epoch": 5660,
        "meta_bstar": 0,
        "meta_mean_motion_dot": -3e-08,
        "meta_mean_motion_ddot": 0,
        "tle_line1": "1 41860U 16069B   25354.27767805 -.00000003  00000+0  00000+0 0  9994",
        "tle_line2": "2 41860  55.3840 106.0370 0002051  19.5569 340.4166  1.70474695 56600"
      },
      "geometry": {
        "type": "Point",
        "coordinates": [
          28.289112267557147,
          -54.783032843100365
        ]
      }
    },
    {
      "type": "Feature",
      "properties": {
        "norad_id": 41861,
        "name": "GSAT0213 (GALILEO 17)",
        "group": "galileo",
        "lat": 40.09231617997363,
        "lon": 141.50190397404106,
        "alt_km": 23222.058257843924,
        "timestamp": "2025-12-21T07:34:34.781044+00:00",
        "meta_object_name": "GSAT0213 (GALILEO 17)",
        "meta_object_id": "2016-069C",
        "meta_epoch": "2025-12-17T17:05:43.699776",
        "meta_mean_motion": 1.70474994,
        "meta_eccentricity": 0.000259,
        "meta_inclination": 55.385,
        "meta_ra_of_asc_node": 106.1156,
        "meta_arg_of_pericenter": 282.1972,
        "meta_mean_anomaly": 77.7328,
        "meta_ephemeris_type": 0,
        "meta_classification_type": "U",
        "meta_norad_cat_id": 41861,
        "meta_element_set_no": 999,
        "meta_rev_at_epoch": 5642,
        "meta_bstar": 0,
        "meta_mean_motion_dot": -9e-08,
        "meta_mean_motion_ddot": 0,
        "tle_line1": "1 41861U 16069C   25351.71231134 -.00000009  00000+0  00000+0 0  9998",
        "tle_line2": "2 41861  55.3850 106.1156 0002590 282.1972  77.7328  1.70474994 56421"
      },
      "geometry": {
        "type": "Point",
        "coordinates": [
          141.50190397404106,
          40.09231617997363
        ]
      }
    },
    {
      "type": "Feature",
      "properties": {
        "norad_id": 41862,
        "name": "GSAT0214 (GALILEO 18)",
        "group": "galileo",
        "lat": -30.558259558993985,
        "lon": 81.97474531592322,
        "alt_km": 23222.126781206476,
        "timestamp": "2025-12-21T07:34:34.781054+00:00",
        "meta_object_name": "GSAT0214 (GALILEO 18)",
        "meta_object_id": "2016-069D",
        "meta_epoch": "2025-12-17T20:35:58.649280",
        "meta_mean_motion": 1.70474854,
        "meta_eccentricity": 0.00015422,
        "meta_inclination": 55.383,
        "meta_ra_of_asc_node": 106.1044,
        "meta_arg_of_pericenter": 289.1766,
        "meta_mean_anomaly": 70.7658,
        "meta_ephemeris_type": 0,
        "meta_classification_type": "U",
        "meta_norad_cat_id": 41862,
        "meta_element_set_no": 999,
        "meta_rev_at_epoch": 5655,
        "meta_bstar": 0,
        "meta_mean_motion_dot": -9e-08,
        "meta_mean_motion_ddot": 0,
        "tle_line1": "1 41862U 16069D   25351.85831770 -.00000009  00000+0  00000+0 0  9996",
        "tle_line2": "2 41862  55.3830 106.1044 0001542 289.1766  70.7658  1.70474854 56558"
      },
      "geometry": {
        "type": "Point",
        "coordinates": [
          81.97474531592322,
          -30.558259558993985
        ]
      }
    },
    {
      "type": "Feature",
      "properties": {
        "norad_id": 43055,
        "name": "GSAT0215 (GALILEO 19)",
        "group": "galileo",
        "lat": 17.090715540938994,
        "lon": -121.20751500107659,
        "alt_km": 23217.185473786896,
        "timestamp": "2025-12-21T07:34:34.781065+00:00",
        "meta_object_name": "GSAT0215 (GALILEO 19)",
        "meta_object_id": "2017-079A",
        "meta_epoch": "2025-12-18T08:21:56.206080",
        "meta_mean_motion": 1.70474068,
        "meta_eccentricity": 0.00012335,
        "meta_inclination": 55.1282,
        "meta_ra_of_asc_node": 226.4832,
        "meta_arg_of_pericenter": 345.8587,
        "meta_mean_anomaly": 14.2435,
        "meta_ephemeris_type": 0,
        "meta_classification_type": "U",
        "meta_norad_cat_id": 43055,
        "meta_element_set_no": 999,
        "meta_rev_at_epoch": 4990,
        "meta_bstar": 0,
        "meta_mean_motion_dot": 6.2e-07,
        "meta_mean_motion_ddot": 0,
        "tle_line1": "1 43055U 17079A   25352.34856720  .00000062  00000+0  00000+0 0  9999",
        "tle_line2": "2 43055  55.1282 226.4832 0001233 345.8587  14.2435  1.70474068 49906"
      },
      "geometry": {
        "type": "Point",
        "coordinates": [
          -121.20751500107659,
          17.090715540938994
        ]
      }
    },
    {
      "type": "Feature",
      "properties": {
        "norad_id": 43056,
        "name": "GSAT0216 (GALILEO 20)",
        "group": "galileo",
        "lat": -18.07879678704773,
        "lon": 59.56941536616398,
        "alt_km": 23228.354374360944,
        "timestamp": "2025-12-21T07:34:34.781074+00:00",
        "meta_object_name": "GSAT0216 (GALILEO 20)",
        "meta_object_id": "2017-079B",
        "meta_epoch": "2025-12-19T19:30:44.926272",
        "meta_mean_motion": 1.70474153,
        "meta_eccentricity": 0.00023685,
        "meta_inclination": 55.1281,
        "meta_ra_of_asc_node": 226.4428,
        "meta_arg_of_pericenter": 323.7267,
        "meta_mean_anomaly": 36.3665,
        "meta_ephemeris_type": 0,
        "meta_classification_type": "U",
        "meta_norad_cat_id": 43056,
        "meta_element_set_no": 999,
        "meta_rev_at_epoch": 4994,
        "meta_bstar": 0,
        "meta_mean_motion_dot": 6.9e-07,
        "meta_mean_motion_ddot": 0,
        "tle_line1": "1 43056U 17079B   25353.81301998  .00000069  00000+0  00000+0 0  9992",
        "tle_line2": "2 43056  55.1281 226.4428 0002368 323.7267  36.3665  1.70474153 49946"
      },
      "geometry": {
        "type": "Point",
        "coordinates": [
          59.56941536616398,
          -18.07879678704773
        ]
      }
    },
    {
      "type": "Feature",
      "properties": {
        "norad_id": 43057,
        "name": "GSAT0217 (GALILEO 21)",
        "group": "galileo",
        "lat": 48.93995409453385,
        "lon": -80.43514430597993,
        "alt_km": 23214.720515944373,
        "timestamp": "2025-12-21T07:34:34.781084+00:00",
        "meta_object_name": "GSAT0217 (GALILEO 21)",
        "meta_object_id": "2017-079C",
        "meta_epoch": "2025-12-18T06:34:31.891008",
        "meta_mean_motion": 1.70474093,
        "meta_eccentricity": 0.0002798,
        "meta_inclination": 55.1266,
        "meta_ra_of_asc_node": 226.4833,
        "meta_arg_of_pericenter": 348.1017,
        "meta_mean_anomaly": 11.9971,
        "meta_ephemeris_type": 0,
        "meta_classification_type": "U",
        "meta_norad_cat_id": 43057,
        "meta_element_set_no": 999,
        "meta_rev_at_epoch": 4990,
        "meta_bstar": 0,
        "meta_mean_motion_dot": 6.1e-07,
        "meta_mean_motion_ddot": 0,
        "tle_line1": "1 43057U 17079C   25352.27398022  .00000061  00000+0  00000+0 0  9998",
        "tle_line2": "2 43057  55.1266 226.4833 0002798 348.1017  11.9971  1.70474093 49909"
      },
      "geometry": {
        "type": "Point",
        "coordinates": [
          -80.43514430597993,
          48.93995409453385
        ]
      }
    },
    {
      "type": "Feature",
      "properties": {
        "norad_id": 43058,
        "name": "GSAT0218 (GALILEO 22)",
        "group": "galileo",
        "lat": -49.66113413642734,
        "lon": 171.24451998076037,
        "alt_km": 23219.837925635966,
        "timestamp": "2025-12-21T07:34:34.781094+00:00",
        "meta_object_name": "GSAT0218 (GALILEO 22)",
        "meta_object_id": "2017-079D",
        "meta_epoch": "2025-12-20T06:05:26.226528",
        "meta_mean_motion": 1.70474115,
        "meta_eccentricity": 0.00027735,
        "meta_inclination": 55.1262,
        "meta_ra_of_asc_node": 226.4264,
        "meta_arg_of_pericenter": 307.8467,
        "meta_mean_anomaly": 52.2377,
        "meta_ephemeris_type": 0,
        "meta_classification_type": "U",
        "meta_norad_cat_id": 43058,
        "meta_element_set_no": 999,
        "meta_rev_at_epoch": 4996,
        "meta_bstar": 0,
        "meta_mean_motion_dot": 7e-07,
        "meta_mean_motion_ddot": 0,
        "tle_line1": "1 43058U 17079D   25354.25377577  .00000070  00000+0  00000+0 0  9991",
        "tle_line2": "2 43058  55.1262 226.4264 0002773 307.8467  52.2377  1.70474115 49967"
      },
      "geometry": {
        "type": "Point",
        "coordinates": [
          171.24451998076037,
          -49.66113413642734
        ]
      }
    }
  ]
}